[Satellite]
VERSION=1.1
NAME=AZTECHSAT-1
NICKNAME=AZTECHSAT-1
TLE1=1 45257U 98067RA  20128.45595855  .00004379  00000-0  82667-4 0  9998
TLE2=2 45257 051.6413 189.3890 0007731 209.0448 151.0112 15.50693866012146
STATUS=0
